{"fetched_at":"2026-03-29T16:36:15Z","count":15609,"tles":[{"name":"KUIPER-00132","line1":"1 65763U 25217B   26087.76044272  .00021968  00000+0  54176-3 0  9990","line2":"2 65763  51.8582 270.8708 0006558  39.3224 320.8239 15.40454198 28364","category":"Other"}]}